FLOCK 2K-36             
1 42876U 17042BD  17335.28144716  .00004335  00000-0  12986-3 0  9997
2 42876  96.9953 236.9396 0014778  96.0198 264.2731 15.34901052 21264
FLOCK 2K-35             
1 42877U 17042BE  17335.47840500  .00011597  00000-0  34263-3 0  9993
2 42877  96.9951 237.1216 0014620  95.0873 265.2041 15.34984652 21297
FLOCK 2K-34             
1 42878U 17042BF  17335.54075473  .00002700  00000-0  81715-4 0  9992
2 42878  96.9949 237.1825 0014692  95.4590 264.8331 15.34897733 21302
FLOCK 2K-33             
1 42879U 17042BG  17335.53779198  .00002782  00000-0  84114-4 0  9993
2 42879  96.9949 237.1867 0014768  95.2225 265.0705 15.34901658 21306
FLOCK 2K-28             
1 42880U 17042BH  17335.44802295  .00002278  00000-0  71635-4 0  9994
2 42880  96.9952 237.0192 0014979  95.8919 264.4032 15.33820328 21288
LEMUR-2-ARTFISCHER      
1 42881U 17042BJ  17335.49152178  .00005027  00000-0  15240-3 0  9992
2 42881  96.9978 237.1511 0015500  96.7673 263.5336 15.34439865 21281
FLOCK 2K-27             
1 42882U 17042BK  17335.40610978  .00006915  00000-0  20607-3 0  9991
2 42882  96.9955 237.0701 0014870  95.9138 264.3802 15.34860079 21285
FLOCK 2K-26             
1 42883U 17042BL  17335.40322939  .00002736  00000-0  82924-4 0  9997
2 42883  96.9947 237.0704 0014768  94.4329 265.8603 15.34839227 21288
FLOCK 2K-25             
1 42884U 17042BM  17335.27862506  .00002587  00000-0  78437-4 0  9990
2 42884  96.9948 236.9350 0014694  95.8646 264.4274 15.34881338 21267
FLOCK 2K-20             
1 42885U 17042BN  17335.79300264  .00002294  00000-0  69892-4 0  9996
2 42885  96.9950 237.4460 0014853  93.0504 267.2440 15.34834217 21348
FLOCK 2K-19             
1 42886U 17042BP  17335.79601002  .00002421  00000-0  73649-4 0  9998
2 42886  96.9953 237.4437 0014834  93.5688 266.7253 15.34830050 21340
FLOCK 2K-18             
1 42887U 17042BQ  17335.45811002  .00002553  00000-0  77505-4 0  9996
2 42887  96.9949 237.1452 0015200  93.7061 266.5922 15.34840794 21296
FLOCK 2K-17             
1 42888U 17042BR  17335.52776824  .00002468  00000-0  75036-4 0  9999
2 42888  96.9944 237.1946 0015088  92.7245 267.5726 15.34823237 21305
FLOCK 2K-16             
1 42889U 17042BS  17335.46386267  .00002687  00000-0  81377-4 0  9999
2 42889  96.9949 237.1411 0014742  92.8826 267.4105 15.34884746 21290
FLOCK 2K-15             
1 42890U 17042BT  17335.71735771  .00002402  00000-0  73001-4 0  9997
2 42890  96.9955 237.4035 0015099  92.6628 267.6345 15.34861577 21338
FLOCK 2K-13             
1 42891U 17042BU  17335.79128777  .00003236  00000-0  97526-4 0  9992
2 42891  96.9949 237.4459 0015100  90.0514 270.2460 15.34890174 21345
FLOCK 2K-14             
1 42892U 17042BV  17335.78539001  .00002389  00000-0  72570-4 0  9998
2 42892  96.9944 237.4468 0015165  91.4500 268.8481 15.34878219 21344
FLOCK 2K-12             
1 42893U 17042BW  17335.51886174  .00002866  00000-0  86701-4 0  9997
2 42893  96.9953 237.2167 0015127  93.5423 266.7552 15.34852001 21307
FLOCK 2K-11             
1 42894U 17042BX  17335.52622304  .00002501  00000-0  75912-4 0  9990
2 42894  96.9949 237.2074 0015145  90.0556 270.2424 15.34863776 21308
FLOCK 2K-10             
1 42895U 17042BY  17335.45496209  .00002694  00000-0  81555-4 0  9999
2 42895  96.9948 237.1442 0015222  92.1627 268.1361 15.34888962 21292
FLOCK 2K-09             
1 42896U 17042BZ  17335.45212090  .00002661  00000-0  80712-4 0  9992
2 42896  96.9953 237.1549 0014988  91.6791 268.6170 15.34841293 21469
FLOCK 2K-06             
1 42897U 17042CA  17335.22971973  .00002610  00000-0  79097-4 0  9998
2 42897  96.9948 236.8592 0013132 104.0161 256.2544 15.34902069 21252
SILU-1 (SILKROAD 1)     
1 42903U 17021F   17335.76522514  .00019778  00000-0  20829-3 0  9996
2 42903  42.7808  76.7128 0008921 348.1660 149.7704 15.63838593 18943
FLOCK 3M-1              
1 42995U 17068J   17335.85840420  .00000991  00000-0  51756-4 0  9998
2 42995  97.3435  89.1418 0019297 115.7214 244.6015 15.18027096  4692
FLOCK 3M-3              
1 42996U 17068K   17335.85514403  .00001016  00000-0  52762-4 0  9995
2 42996  97.3391  89.1264 0018648 116.3463 243.9689 15.18187470  4697
FLOCK 3M-4              
1 42997U 17068L   17335.85355139  .00000933  00000-0  48624-4 0  9994
2 42997  97.3602  89.2241 0018401 117.3662 242.9447 15.18261963  4699
FLOCK 3M-2              
1 42998U 17068M   17335.84746346  .00001112  00000-0  56844-4 0  9991
2 42998  97.3503  89.1866 0016671 113.3425 246.9565 15.18567549  4696
ECAMSAT                 
1 43019U 98067NG  17335.79210873  .00006371  00000-0  10047-3 0  9995
2 43019  51.6401 282.7314 0005619 149.9968 210.1345 15.54931223 87815
ASTERIA                 
1 43020U 98067NH  17335.34221954  .00015724  00000-0  23644-3 0  9999
2 43020  51.6403 284.9771 0002989 137.1865 222.9359 15.55027813  1669
DELLINGR (RBLE)         
1 43021U 98067NJ  17335.34277514  .00009267  00000-0  14307-3 0  9994
2 43021  51.6404 284.9808 0002813 135.4219 224.6998 15.54890817  1661
TECHEDSAT 6             
1 43026U 98067NK  17335.33755654  .00060030  00000-0  83944-3 0  9992
2 43026  51.6402 284.9463 0002936 124.1262 236.0009 15.56242525  1568
OSIRIS-3U               
1 43027U 98067NL  17335.40430306  .00019992  00000-0  29373-3 0  9992
2 43027  51.6409 284.6411 0004703 118.3882 241.7584 15.55466628  1554
